start=new Date('2021-11-28T00:00:00.000Z').valueOf();
sats=[{"ECCENTRICITY":"0.00016930","ELEMENT_SET_NO":"999","LAUNCH_DATE":"2020-08-18","GP_ID":"190621785","MEAN_MOTION_DDOT":"0.0000000000000","SITE":"AFETR","TIME_SYSTEM":"UTC","OBJECT_NAME":"STARLINK-1603","OBJECT_TYPE":"PAYLOAD","BSTAR":"0.00012475000000","FILE":"3225675","RA_OF_ASC_NODE":"113.2876","NORAD_CAT_ID":"46162","MEAN_ANOMALY":"277.7967","MEAN_MOTION":"15.06412522","SEMIMAJOR_AXIS":"6925.310","CLASSIFICATION_TYPE":"U","COUNTRY_CODE":"US","DECAY_DATE":null,"PERIOD":"95.591","ARG_OF_PERICENTER":"82.3214","EPOCH":"2021-11-27T16:02:43.780992","TLE_LINE1":"1 46162U 20057AX  21331.66856228  .00001578  00000-0  12475-3 0  9999","MEAN_ELEMENT_THEORY":"SGP4","RCS_SIZE":"LARGE","MEAN_MOTION_DOT":"0.00001578","REV_AT_EPOCH":"7202","OBJECT_ID":"2020-057AX","INCLINATION":"53.0538","APOAPSIS":"548.348","REF_FRAME":"TEME","CENTER_NAME":"EARTH","PERIAPSIS":"546.003","EPHEMERIS_TYPE":"0","TLE_LINE2":"2 46162  53.0538 113.2876 0001693  82.3214 277.7967 15.06412522 72026"},{"CLASSIFICATION_TYPE":"U","SEMIMAJOR_AXIS":"6925.268","MEAN_ANOMALY":"269.2148","MEAN_MOTION":"15.06426358","DECAY_DATE":null,"COUNTRY_CODE":"US","RA_OF_ASC_NODE":"93.0130","FILE":"3225675","NORAD_CAT_ID":"46163","OBJECT_NAME":"STARLINK-1610","TIME_SYSTEM":"UTC","SITE":"AFETR","OBJECT_TYPE":"PAYLOAD","BSTAR":"-0.00037693000000","ELEMENT_SET_NO":"999","ECCENTRICITY":"0.00012210","LAUNCH_DATE":"2020-08-18","GP_ID":"190620040","MEAN_MOTION_DDOT":"0.0000000000000","CENTER_NAME":"EARTH","PERIAPSIS":"546.287","REF_FRAME":"TEME","APOAPSIS":"547.978","EPHEMERIS_TYPE":"0","TLE_LINE2":"2 46163  53.0556  93.0130 0001221  90.8981 269.2148 15.06426358 71058","OBJECT_ID":"2020-057AY","INCLINATION":"53.0556","RCS_SIZE":"LARGE","TLE_LINE1":"1 46163U 20057AY  21331.73306089 -.00005895  00000-0 -37693-3 0  9990","MEAN_ELEMENT_THEORY":"SGP4","REV_AT_EPOCH":"7105","MEAN_MOTION_DOT":"-0.00005895","ARG_OF_PERICENTER":"90.8981","PERIOD":"95.590","EPOCH":"2021-11-27T17:35:36.460896"},{"MEAN_ELEMENT_THEORY":"SGP4","TLE_LINE1":"1 46164U 20057AZ  21331.72938974 -.00000516  00000-0 -15752-4 0  9992","RCS_SIZE":"LARGE","MEAN_MOTION_DOT":"-0.00000516","REV_AT_EPOCH":"7231","EPOCH":"2021-11-27T17:30:19.273536","PERIOD":"95.593","ARG_OF_PERICENTER":"73.2293","REF_FRAME":"TEME","APOAPSIS":"548.120","PERIAPSIS":"546.344","CENTER_NAME":"EARTH","TLE_LINE2":"2 46164  53.0537  93.0257 0001282  73.2293 286.8837 15.06394038 72315","EPHEMERIS_TYPE":"0","OBJECT_ID":"2020-057AZ","INCLINATION":"53.0537","SITE":"AFETR","TIME_SYSTEM":"UTC","OBJECT_NAME":"STARLINK-1612","BSTAR":"-0.00001575200000","OBJECT_TYPE":"PAYLOAD","ECCENTRICITY":"0.00012820","ELEMENT_SET_NO":"999","MEAN_MOTION_DDOT":"0.0000000000000","LAUNCH_DATE":"2020-08-18","GP_ID":"190620791","MEAN_MOTION":"15.06394038","MEAN_ANOMALY":"286.8837","CLASSIFICATION_TYPE":"U","SEMIMAJOR_AXIS":"6925.367","COUNTRY_CODE":"US","DECAY_DATE":null,"FILE":"3225675","NORAD_CAT_ID":"46164","RA_OF_ASC_NODE":"93.0257"},{"FILE":"3225675","NORAD_CAT_ID":"46165","RA_OF_ASC_NODE":"132.9720","COUNTRY_CODE":"US","DECAY_DATE":null,"MEAN_ANOMALY":"273.0044","MEAN_MOTION":"15.06397791","CLASSIFICATION_TYPE":"U","SEMIMAJOR_AXIS":"6925.355","GP_ID":"190621026","LAUNCH_DATE":"2020-08-18","MEAN_MOTION_DDOT":"0.0000000000000","ECCENTRICITY":"0.00017980","ELEMENT_SET_NO":"999","OBJECT_TYPE":"PAYLOAD","BSTAR":"0.00007008500000","SITE":"AFETR","TIME_SYSTEM":"UTC","OBJECT_NAME":"STARLINK-1613","INCLINATION":"53.0525","OBJECT_ID":"2020-057BA","EPHEMERIS_TYPE":"0","TLE_LINE2":"2 46165  53.0525 132.9720 0001798  87.1151 273.0044 15.06397791 70494","REF_FRAME":"TEME","APOAPSIS":"548.466","CENTER_NAME":"EARTH","PERIAPSIS":"545.975","PERIOD":"95.592","ARG_OF_PERICENTER":"87.1151","EPOCH":"2021-11-27T17:46:15.744000","MEAN_MOTION_DOT":"0.00000762","REV_AT_EPOCH":"7049","TLE_LINE1":"1 46165U 20057BA  21331.74046000  .00000762  00000-0  70085-4 0  9996","MEAN_ELEMENT_THEORY":"SGP4","RCS_SIZE":"LARGE"},{"OBJECT_ID":"2020-057BB","INCLINATION":"53.0536","REF_FRAME":"TEME","APOAPSIS":"548.642","CENTER_NAME":"EARTH","PERIAPSIS":"545.761","EPHEMERIS_TYPE":"0","TLE_LINE2":"2 46166  53.0536 132.4847 0002080  89.8975 270.2252 15.06403809 70511","PERIOD":"95.592","ARG_OF_PERICENTER":"89.8975","EPOCH":"2021-11-27T20:20:09.249792","TLE_LINE1":"1 46166U 20057BB  21331.84732928  .00000620  00000-0  60499-4 0  9990","MEAN_ELEMENT_THEORY":"SGP4","RCS_SIZE":"LARGE","MEAN_MOTION_DOT":"0.00000620","REV_AT_EPOCH":"7051","FILE":"3225675","NORAD_CAT_ID":"46166","RA_OF_ASC_NODE":"132.4847","MEAN_ANOMALY":"270.2252","MEAN_MOTION":"15.06403809","SEMIMAJOR_AXIS":"6925.337","CLASSIFICATION_TYPE":"U","COUNTRY_CODE":"US","DECAY_DATE":null,"ECCENTRICITY":"0.00020800","ELEMENT_SET_NO":"999","GP_ID":"190622285","LAUNCH_DATE":"2020-08-18","MEAN_MOTION_DDOT":"0.0000000000000","SITE":"AFETR","TIME_SYSTEM":"UTC","OBJECT_NAME":"STARLINK-1615","OBJECT_TYPE":"PAYLOAD","BSTAR":"0.00006049900000"},{"FILE":"3225675","NORAD_CAT_ID":"46167","RA_OF_ASC_NODE":"132.4310","DECAY_DATE":null,"COUNTRY_CODE":"US","CLASSIFICATION_TYPE":"U","SEMIMAJOR_AXIS":"6925.380","MEAN_MOTION":"15.06389798","MEAN_ANOMALY":"266.8667","MEAN_MOTION_DDOT":"0.0000000000000","LAUNCH_DATE":"2020-08-18","GP_ID":"190621794","ELEMENT_SET_NO":"999","ECCENTRICITY":"0.00014170","BSTAR":"0.00006231900000","OBJECT_TYPE":"PAYLOAD","TIME_SYSTEM":"UTC","OBJECT_NAME":"STARLINK-1626","SITE":"AFETR","INCLINATION":"53.0543","OBJECT_ID":"2020-057BC","TLE_LINE2":"2 46167  53.0543 132.4310 0001417  93.2484 266.8667 15.06389798 70513","EPHEMERIS_TYPE":"0","PERIAPSIS":"546.263","CENTER_NAME":"EARTH","REF_FRAME":"TEME","APOAPSIS":"548.226","EPOCH":"2021-11-27T20:41:25.840896","ARG_OF_PERICENTER":"93.2484","PERIOD":"95.593","REV_AT_EPOCH":"7051","MEAN_MOTION_DOT":"0.00000647","RCS_SIZE":"LARGE","MEAN_ELEMENT_THEORY":"SGP4","TLE_LINE1":"1 46167U 20057BC  21331.86210464  .00000647  00000-0  62319-4 0  9991"},{"NORAD_CAT_ID":"46168","FILE":"3225675","RA_OF_ASC_NODE":"82.5541","COUNTRY_CODE":"US","DECAY_DATE":null,"MEAN_MOTION":"15.06398632","MEAN_ANOMALY":"271.9307","CLASSIFICATION_TYPE":"U","SEMIMAJOR_AXIS":"6925.353","MEAN_MOTION_DDOT":"0.0000000000000","GP_ID":"190621291","LAUNCH_DATE":"2020-08-18","ECCENTRICITY":"0.00011350","ELEMENT_SET_NO":"999","BSTAR":"0.00010113000000","OBJECT_TYPE":"PAYLOAD","SITE":"AFETR","TIME_SYSTEM":"UTC","OBJECT_NAME":"STARLINK-1627","INCLINATION":"53.0549","OBJECT_ID":"2020-057BD","TLE_LINE2":"2 46168  53.0549  82.5541 0001135  88.1812 271.9307 15.06398632 71208","EPHEMERIS_TYPE":"0","APOAPSIS":"548.004","REF_FRAME":"TEME","PERIAPSIS":"546.432","CENTER_NAME":"EARTH","EPOCH":"2021-11-27T19:58:53.646240","ARG_OF_PERICENTER":"88.1812","PERIOD":"95.592","MEAN_MOTION_DOT":"0.00001225","REV_AT_EPOCH":"7120","MEAN_ELEMENT_THEORY":"SGP4","TLE_LINE1":"1 46168U 20057BD  21331.83256535  .00001225  00000-0  10113-3 0  9995","RCS_SIZE":"LARGE"},{"RA_OF_ASC_NODE":"134.0153","FILE":"3225405","NORAD_CAT_ID":"46169","DECAY_DATE":null,"COUNTRY_CODE":"US","SEMIMAJOR_AXIS":"6927.837","CLASSIFICATION_TYPE":"U","MEAN_MOTION":"15.05588421","MEAN_ANOMALY":"271.2990","MEAN_MOTION_DDOT":"0.0000000000000","LAUNCH_DATE":"2020-08-18","GP_ID":"190592242","ELEMENT_SET_NO":"999","ECCENTRICITY":"0.00018870","BSTAR":"0.00011965000000","OBJECT_TYPE":"PAYLOAD","OBJECT_NAME":"STARLINK-1628","TIME_SYSTEM":"UTC","SITE":"AFETR","INCLINATION":"52.9990","OBJECT_ID":"2020-057BE","TLE_LINE2":"2 46169  52.9990 134.0153 0001887  88.8214 271.2990 15.05588421 70437","EPHEMERIS_TYPE":"0","PERIAPSIS":"548.395","CENTER_NAME":"EARTH","APOAPSIS":"551.009","REF_FRAME":"TEME","EPOCH":"2021-11-27T12:08:16.504512","PERIOD":"95.644","ARG_OF_PERICENTER":"88.8214","REV_AT_EPOCH":"7043","MEAN_MOTION_DOT":"0.00001465","RCS_SIZE":"LARGE","MEAN_ELEMENT_THEORY":"SGP4","TLE_LINE1":"1 46169U 20057BE  21331.50574658  .00001465  00000-0  11965-3 0  9991"},{"RA_OF_ASC_NODE":"113.1267","FILE":"3225675","NORAD_CAT_ID":"46171","MEAN_ANOMALY":"272.9953","MEAN_MOTION":"15.06397501","SEMIMAJOR_AXIS":"6925.356","CLASSIFICATION_TYPE":"U","COUNTRY_CODE":"US","DECAY_DATE":null,"ECCENTRICITY":"0.00015380","ELEMENT_SET_NO":"999","LAUNCH_DATE":"2020-08-18","GP_ID":"190621786","MEAN_MOTION_DDOT":"0.0000000000000","SITE":"AFETR","TIME_SYSTEM":"UTC","OBJECT_NAME":"STARLINK-1633","OBJECT_TYPE":"PAYLOAD","BSTAR":"-0.00002701300000","OBJECT_ID":"2020-057BG","INCLINATION":"53.0540","REF_FRAME":"TEME","APOAPSIS":"548.286","CENTER_NAME":"EARTH","PERIAPSIS":"546.156","EPHEMERIS_TYPE":"0","TLE_LINE2":"2 46171  53.0540 113.1267 0001538  87.1212 272.9953 15.06397501 72022","PERIOD":"95.592","ARG_OF_PERICENTER":"87.1212","EPOCH":"2021-11-27T16:55:49.543392","TLE_LINE1":"1 46171U 20057BG  21331.70543453 -.00000684  00000-0 -27013-4 0  9991","MEAN_ELEMENT_THEORY":"SGP4","RCS_SIZE":"LARGE","MEAN_MOTION_DOT":"-0.00000684","REV_AT_EPOCH":"7202"},{"NORAD_CAT_ID":"46172","FILE":"3225675","RA_OF_ASC_NODE":"112.7715","CLASSIFICATION_TYPE":"U","SEMIMAJOR_AXIS":"6925.320","MEAN_ANOMALY":"280.7587","MEAN_MOTION":"15.06409424","DECAY_DATE":null,"COUNTRY_CODE":"US","ELEMENT_SET_NO":"999","ECCENTRICITY":"0.00015970","LAUNCH_DATE":"2020-08-18","GP_ID":"190622294","MEAN_MOTION_DDOT":"0.0000000000000","TIME_SYSTEM":"UTC","OBJECT_NAME":"STARLINK-1635","SITE":"AFETR","OBJECT_TYPE":"PAYLOAD","BSTAR":"0.00011911000000","OBJECT_ID":"2020-057BH","INCLINATION":"53.0547","CENTER_NAME":"EARTH","PERIAPSIS":"546.079","APOAPSIS":"548.291","REF_FRAME":"TEME","EPHEMERIS_TYPE":"0","TLE_LINE2":"2 46172  53.0547 112.7715 0001597  79.3582 280.7587 15.06409424 72030","PERIOD":"95.592","ARG_OF_PERICENTER":"79.3582","EPOCH":"2021-11-27T18:52:36.357888","RCS_SIZE":"LARGE","TLE_LINE1":"1 46172U 20057BH  21331.78653192  .00001493  00000-0  11911-3 0  9998","MEAN_ELEMENT_THEORY":"SGP4","REV_AT_EPOCH":"7203","MEAN_MOTION_DOT":"0.00001493"}];
